NORAD_CAT_ID,OBJECT_NAME,OBJECT_TYPE,EPOCH,MEAN_MOTION,ECCENTRICITY,INCLINATION,RA_OF_ASC_NODE,ARG_OF_PERICENTER,MEAN_ANOMALY,BSTAR,MEAN_MOTION_DOT,MEAN_MOTION_DDOT,TLE_LINE0,TLE_LINE1,TLE_LINE2,SEMIMAJOR_AXIS,PERIOD,APOGEE,PERIGEE,DECAYED
51859.0,STARLINK-3560,PAYLOAD,2023-01-03 20:43:58,15.08837154,0.000272,53.2177,180.2695,48.548,311.5745,5.0315e-05,5.12e-06,0.0,0 STARLINK-3560,1 51859U 22022H   23003.86386929  .00000512  00000-0  50315-4 0  9991,2 51859  53.2177 180.2695 0002720  48.5480 311.5745 15.08837154 47915,6917.889,95.438,541.636,537.872,0.0
51859.0,STARLINK-3560,PAYLOAD,2023-01-04 17:23:58,15.08852671,0.0002845,53.2177,176.4039,50.6788,309.4456,2.0275e-05,3.4e-07,0.0,0 STARLINK-3560,1 51859U 22022H   23004.72497974  .00000034  00000-0  20275-4 0  9991,2 51859  53.2177 176.4039 0002845  50.6788 309.4456 15.08852671 48048,6917.842,95.437,541.675,537.739,0.0
51859.0,STARLINK-3560,PAYLOAD,2023-01-04 20:34:44,15.08844631,0.0002745,53.2177,175.8092,50.3901,309.7333,0.00022178,3.243e-05,0.0,0 STARLINK-3560,1 51859U 22022H   23004.85746226  .00003243  00000-0  22178-3 0  9990,2 51859  53.2177 175.8092 0002745  50.3901 309.7333 15.08844631 48069,6917.866,95.437,541.63,537.832,0.0
51859.0,STARLINK-3560,PAYLOAD,2023-01-05 10:53:12,15.08856877,0.0002781,53.2167,173.1332,50.4077,309.7161,0.00033033,4.975e-05,0.0,0 STARLINK-3560,1 51859U 22022H   23005.45361644  .00004975  00000-0  33033-3 0  9999,2 51859  53.2167 173.1332 0002781  50.4077 309.7161 15.08856877 48155,6917.829000000002,95.436,541.618,537.77,0.0
51859.0,STARLINK-3560,PAYLOAD,2023-01-05 17:14:45,15.08851502,0.0002802,53.2169,171.9438,49.7512,310.3725,0.00022381,3.276e-05,0.0,0 STARLINK-3560,1 51859U 22022H   23005.71857789  .00003276  00000-0  22381-3 0  9995,2 51859  53.2169 171.9438 0002802  49.7512 310.3725 15.08851502 48197,6917.845,95.437,541.649,537.7719999999998,0.0
51859.0,STARLINK-3560,PAYLOAD,2023-01-06 10:43:59,15.0884847,0.0002758,53.2173,168.6729,49.4531,310.6701,-1.1532e-05,-4.72e-06,0.0,0 STARLINK-3560,1 51859U 22022H   23006.44721623 -.00000472  00000-0 -11532-4 0  9997,2 51859  53.2173 168.6729 0002758  49.4531 310.6701 15.08848470 48306,6917.854,95.437,541.627,537.812,0.0
51859.0,STARLINK-3560,PAYLOAD,2023-01-06 20:16:17,15.08863525,0.0002767,53.2169,166.8884,50.158,309.9655,0.00019452,2.811e-05,0.0,0 STARLINK-3560,1 51859U 22022H   23006.84464362  .00002811  00000-0  19452-3 0  9990,2 51859  53.2169 166.8884 0002767  50.1580 309.9655 15.08863525 48369,6917.808000000001,95.436,541.5880000000002,537.759,0.0
51859.0,STARLINK-3560,PAYLOAD,2023-01-07 10:34:46,15.08836489,0.0002523,53.2184,164.2135,51.819,308.303,-0.00014361,-2.573e-05,0.0,0 STARLINK-3560,1 51859U 22022H   23007.44081501 -.00002573  00000-0 -14361-3 0  9998,2 51859  53.2184 164.2135 0002523  51.8190 308.3030 15.08836489 48451,6917.891,95.438,541.502,538.011,0.0
51859.0,STARLINK-3560,PAYLOAD,2023-01-08 08:50:10,15.08844052,0.0002756,53.2158,160.0482,57.7332,302.3927,2.6541e-05,1.34e-06,0.0,0 STARLINK-3560,1 51859U 22022H   23008.36817202  .00000134  00000-0  26541-4 0  9998,2 51859  53.2158 160.0482 0002756  57.7332 302.3927 15.08844052 48591,6917.868,95.437,541.64,537.826,0.0
51859.0,STARLINK-3560,PAYLOAD,2023-01-09 13:27:07,15.08836583,0.0002562,53.218,154.6984,51.6161,308.5061,0.00010136,1.325e-05,0.0,0 STARLINK-3560,1 51859U 22022H   23009.56049786  .00001325  00000-0  10136-3 0  9990,2 51859  53.2180 154.6984 0002562  51.6161 308.5061 15.08836583 48777,6917.891,95.438,541.528,537.9830000000002,0.0
51859.0,STARLINK-3560,PAYLOAD,2023-01-09 16:37:53,15.08839101,0.0002511,53.2189,154.1043,52.3314,307.7905,0.00014321,1.992e-05,0.0,0 STARLINK-3560,1 51859U 22022H   23009.69297677  .00001992  00000-0  14321-3 0  9998,2 51859  53.2189 154.1043 0002511  52.3314 307.7905 15.08839101 48798,6917.883000000002,95.438,541.485,538.011,0.0
51859.0,STARLINK-3560,PAYLOAD,2023-01-10 02:10:12,15.08827259,0.0002379,53.2189,152.3205,52.7469,307.374,0.00030912,4.633e-05,0.0,0 STARLINK-3560,1 51859U 22022H   23010.09042297  .00004633  00000-0  30912-3 0  9999,2 51859  53.2189 152.3205 0002379  52.7469 307.3740 15.08827259 48856,6917.919,95.438,541.43,538.139,0.0
51859.0,STARLINK-3560,PAYLOAD,2023-01-10 13:17:54,15.08846806,0.0002372,53.2185,150.2379,49.0055,311.1142,-0.00026686,-4.534e-05,0.0,0 STARLINK-3560,1 51859U 22022H   23010.55410208 -.00004534  00000-0 -26686-3 0  9996,2 51859  53.2185 150.2379 0002372  49.0055 311.1142 15.08846806 48920,6917.86,95.437,541.366,538.0840000000002,0.0
51859.0,STARLINK-3560,PAYLOAD,2023-01-11 13:08:40,15.08846386,0.0002525,53.2177,145.7767,48.5002,311.6207,0.00016263,2.301e-05,0.0,0 STARLINK-3560,1 51859U 22022H   23011.54769529  .00002301  00000-0  16263-3 0  9997,2 51859  53.2177 145.7767 0002525  48.5002 311.6207 15.08846386 49074,6917.861,95.437,541.4730000000002,537.979,0.0
51859.0,STARLINK-3560,PAYLOAD,2023-01-12 01:51:44,15.08874257,0.0002291,53.2183,143.3978,46.339,313.7791,-0.00033019,-5.545e-05,0.0,0 STARLINK-3560,1 51859U 22022H   23012.07760324 -.00005545  00000-0 -33019-3 0  9993,2 51859  53.2183 143.3978 0002291  46.3390 313.7791 15.08874257 49153,6917.776,95.435,541.226,538.056,0.0
51859.0,STARLINK-3560,PAYLOAD,2023-01-12 14:34:51,15.08844297,0.0002264,53.2172,141.0188,39.7891,320.3266,0.00019171,2.765e-05,0.0,0 STARLINK-3560,1 51859U 22022H   23012.60753602  .00002765  00000-0  19171-3 0  9995,2 51859  53.2172 141.0188 0002264  39.7891 320.3266 15.08844297 49232,6917.866999999998,95.437,541.298,538.1659999999998,0.0
51859.0,STARLINK-3560,PAYLOAD,2023-01-13 01:42:33,15.08833671,0.0001993,53.2176,138.939,36.558,323.5548,0.00014634,2.041e-05,0.0,0 STARLINK-3560,1 51859U 22022H   23013.07121917  .00002041  00000-0  14634-3 0  9991,2 51859  53.2176 138.9390 0001993  36.5580 323.5548 15.08833671 49304,6917.9,95.438,541.143,538.386,0.0
51859.0,STARLINK-3560,PAYLOAD,2023-01-13 14:25:40,15.08812353,0.0002444,53.2165,136.5614,41.6736,318.4442,-0.00031933,-5.363e-05,0.0,0 STARLINK-3560,1 51859U 22022H   23013.60115896 -.00005363  00000-0 -31933-3 0  9992,2 51859  53.2165 136.5614 0002444  41.6736 318.4442 15.08812353 49385,6917.965,95.439,541.521,538.139,0.0
51859.0,STARLINK-3560,PAYLOAD,2023-01-13 17:36:26,15.08809767,0.0002323999999999,53.2174,135.9642,42.3017,317.8154,-0.00032565,-5.463e-05,0.0,0 STARLINK-3560,1 51859U 22022H   23013.73364278 -.00005463  00000-0 -32565-3 0  9999,2 51859  53.2174 135.9642 0002324  42.3017 317.8154 15.08809767 49407,6917.973000000001,95.439,541.446,538.23,0.0
51859.0,STARLINK-3560,PAYLOAD,2023-01-14 01:33:22,15.08822565,0.0002064,53.2183,134.4792,34.6243,325.4884,-7.1354e-05,-1.423e-05,0.0,0 STARLINK-3560,1 51859U 22022H   23014.06484446 -.00001423  00000-0 -71354-4 0  9998,2 51859  53.2183 134.4792 0002064  34.6243 325.4884 15.08822565 49454,6917.934,95.439,541.227,538.371,0.0
51859.0,STARLINK-3560,PAYLOAD,2023-01-14 14:16:27,15.08839865,0.0002131999999999,53.2185,132.0966,40.6851,319.43,0.00025984,3.85e-05,0.0,0 STARLINK-3560,1 51859U 22022H   23014.59475729  .00003850  00000-0  25984-3 0  9991,2 51859  53.2185 132.0966 0002132  40.6851 319.4300 15.08839865 49537,6917.880999999999,95.438,541.221,538.271,0.0
51859.0,STARLINK-3560,PAYLOAD,2023-01-15 14:07:14,15.08844076,0.0002215999999999,53.2166,127.6392,47.3002,312.8176,0.00053948,8.309e-05,0.0,0 STARLINK-3560,1 51859U 22022H   23015.58836744  .00008309  00000-0  53948-3 0  9994,2 51859  53.2166 127.6392 0002216  47.3002 312.8176 15.08844076 49688,6917.868,95.437,541.266,538.2,0.0
51859.0,STARLINK-3560,PAYLOAD,2023-01-16 13:58:00,15.08870084,0.0002147,53.2177,123.1783,49.7556,310.3623,0.00065434,0.0001014999999999,0.0,0 STARLINK-3560,1 51859U 22022H   23016.58195423  .00010150  00000-0  65434-3 0  9997,2 51859  53.2177 123.1783 0002147  49.7556 310.3623 15.08870084 49833,6917.7880000000005,95.436,541.139,538.168,0.0
51859.0,STARLINK-3560,PAYLOAD,2023-01-16 17:08:46,15.08873879,0.000218,53.2175,122.5836,51.5462,308.5725,0.00069482,0.00010798,0.0,0 STARLINK-3560,1 51859U 22022H   23016.71443068  .00010798  00000-0  69482-3 0  9998,2 51859  53.2175 122.5836 0002180  51.5462 308.5725 15.08873879 49856,6917.776999999999,95.435,541.15,538.134,0.0
51859.0,STARLINK-3560,PAYLOAD,2023-01-16 23:30:20,15.0883332,0.0002976,53.2171,121.3914,59.8692,300.2595,-0.0003612,-6.032e-05,0.0,0 STARLINK-3560,1 51859U 22022H   23016.97940289 -.00006032  00000-0 -36120-3 0  9994,2 51859  53.2171 121.3914 0002976  59.8692 300.2595 15.08833320 49890,6917.901,95.438,541.825,537.707,0.0
51859.0,STARLINK-3560,PAYLOAD,2023-01-17 13:48:49,15.08816106,0.0002689,53.2177,118.7181,74.8201,285.3088,-0.00013432,-2.424e-05,0.0,0 STARLINK-3560,1 51859U 22022H   23017.57557217 -.00002424  00000-0 -13432-3 0  9998,2 51859  53.2177 118.7181 0002689  74.8201 285.3088 15.08816106 49989,6917.953,95.439,541.679,537.9580000000001,0.0
51859.0,STARLINK-3560,PAYLOAD,2023-01-17 16:59:36,15.08815815,0.0001916999999999,53.217,118.1245,71.02,289.0999,0.00036932,5.591e-05,0.0,0 STARLINK-3560,1 51859U 22022H   23017.70805592  .00005591  00000-0  36932-3 0  9991,2 51859  53.2170 118.1245 0001917  71.0200 289.0999 15.08815815 50001,6917.954000000001,95.439,541.145,538.493,0.0
51859.0,STARLINK-3560,PAYLOAD,2023-01-18 10:28:50,15.08874329,0.0001776,53.217,114.8538,68.1598,291.9583,0.0026664,0.00042444,0.0,0 STARLINK-3560,1 51859U 22022H   23018.43669537  .00042444  00000-0  26664-2 0  9997,2 51859  53.2170 114.8538 0001776  68.1598 291.9583 15.08874329 50117,6917.775,95.435,540.869,538.4119999999999,0.0
51859.0,STARLINK-3560,PAYLOAD,2023-01-18 23:11:54,15.08872326,0.0001152,53.2178,112.4746,79.1191,280.9931,0.0011637,0.00018297,0.0,0 STARLINK-3560,1 51859U 22022H   23018.96660535  .00018297  00000-0  11637-2 0  9997,2 51859  53.2178 112.4746 0001152  79.1191 280.9931 15.08872326 50197,6917.781999999999,95.436,540.444,538.85,0.0
